clinic_name,practice_type,target_priority,taxonomy_description,address,city,state,postal_code,phone,website,email,clinic_size,billing_prediction,npi
AIGAS FOUNDATION INC,Psychology Practice,Current,"Counselor; Counselor, Addiction (Substance Use Disorder)",211 E LAKE ST STE 1C,ADDISON,IL,60101,(773) 817-5928,www.aigasfoundation.com,contact@aigasfoundation.com,Solo or Small,Medium,1619687878
ALTON MENTAL HEALTH CENTER,Psychiatry Practice,Current,"Psychiatric Hospital; Pharmacy, Long Term Care Pharmacy",4500 COLLEGE AVE,ALTON,IL,62002,(618) 474-3408,www.altonmentalhealthcenter.com,contact@altonmentalhealthcenter.com,Small Group,High,1720132566
"ABSOLUTE MEDICAL & DIAGNOSTIC CENTER, SC",Psychiatry Practice,Current,"Psychiatry & Neurology, Neurology; Chiropractor, Neurology",1655 N ARLINGTON HEIGHTS RD STE 101W,ARLINGTON HEIGHTS,IL,60004,(847) 870-8955,www.absolutemedicaldiagnosticcentersc.com,contact@absolutemedicaldiagnosticcentersc.com,Small Group,High,1205959434
ADI PEDIATRIC BEHAVIORAL HEALTH,Psychiatry Practice,Current,"Psychiatry & Neurology, Psychiatry",1100 W CENTRAL #405,ARLINGTON HEIGHTS,IL,60005,(847) 577-7705,www.adipediatricbehavioralhealth.com,contact@adipediatricbehavioralhealth.com,Unknown,Medium,1225134976
ADVANCED PSYCH CARE LLC,Psychology Practice,Current,"Psychologist, Clinical",3233 N ARLINGTON HEIGHTS RD SUITE 301 B,ARLINGTON HEIGHTS,IL,60004,(847) 222-0793,www.advancedpsychcare.com,contact@advancedpsychcare.com,Solo or Small,Medium,1619004363
ADVENT NEUROLOGY SC,Psychiatry Practice,Current,"Psychiatry & Neurology, Neurology",657 E GOLF RD SUITE 304,ARLINGTON HEIGHTS,IL,60005,(847) 640-7377,www.adventneurologysc.com,contact@adventneurologysc.com,Unknown,Medium,1205913308
ALEXANDER MEYER PSYD LLC,Psychology Practice,Current,"Psychologist, Clinical",3250 N ARLINGTON HEIGHTS RD,ARLINGTON HEIGHTS,IL,60004,(414) 795-8855,www.alexandermeyerpsyd.com,contact@alexandermeyerpsyd.com,Solo or Small,Medium,1437705738
"ADVANCED NEUROLOGY, LTD",Psychiatry Practice,Current,"Psychiatry & Neurology, Neurology",3295 N ARLINGTON HEIGHTS RD STE 102,ARLINGTON HTS,IL,60004,(847) 650-9509,www.advancedneurologyltd.com,contact@advancedneurologyltd.com,Unknown,Medium,1902005010
"AMITY PSYCHOLOGICAL SERVICES, INC",Psychology Practice,Current,"Psychologist, Clinical",75 EXECUTIVE DR 443,AURORA,IL,60504,(630) 448-8000,www.amitypsychologicalservices.com,contact@amitypsychologicalservices.com,Solo or Small,Medium,1558779389
"ALLEN KUO, D.O.S.C.",Psychiatry Practice,Current,"Psychiatry & Neurology, Psychiatry",18-2 E DUNDEE RD STE 140,BARRINGTON,IL,60010,(847) 737-5277,www.allenkuodosc.com,contact@allenkuodosc.com,Unknown,Medium,1912439415
ADVANCED ORTHOPAEDIC AND NEUROLOGIC ASSOCIATES,Orthopedic Clinic,Future,"Orthopaedic Surgery; Psychiatry & Neurology, Neurology",1691 S RTE 59,BARTLETT,IL,60103,(630) 372-1100,www.advancedorthopaedicandneurologicassociates.com,contact@advancedorthopaedicandneurologicassociates.com,Small Group,Medium,1669593935
MARYVILLE ACADEMY,Psychiatry Practice,Current,"Residential Treatment Facility, Emotionally Disturbed Children; Psychiatric Residential Treatment Facility",951 W BARTLETT RD,BARTLETT,IL,60103,(630) 736-7450,www.maryvilleacademy.com,contact@maryvilleacademy.com,Unknown,Medium,1760283451
GOTTLIEB COMMUNITY HEALTH SERVICES CORPORATION,Psychiatry Practice,Current,Psychiatric Unit,3249 SOUTH OAK PARK AVE,BERWYN,IL,60402,(708) 783-3222,www.gottliebcommunityhealthservicescorporation.com,contact@gottliebcommunityhealthservicescorporation.com,Unknown,Medium,1700864352
"ADVANCE PSYCHIATRY & COUNSELING, SC.",Psychiatry Practice,Current,"Psychiatry & Neurology, Psychiatry",1 TIFFANY PT STE 206,BLOOMINGDALE,IL,60108,(630) 924-1160,www.advancepsychiatrycounselingsc.com,contact@advancepsychiatrycounselingsc.com,Small Group,High,1669563789
AFFILIATED CLINICAL PSYCHOLOGISTS,Psychology Practice,Current,Psychologist,1 TIFFANY PT STE. #111,BLOOMINGDALE,IL,60108,(630) 980-1400,www.affiliatedclinicalpsychologists.com,contact@affiliatedclinicalpsychologists.com,Small Group,Medium,1720156201
AFFILIATED CLINICAL PSYCHOLOGISTS LIMITED,Psychology Practice,Current,Psychologist,1 TIFFANY PT SUITE 111,BLOOMINGDALE,IL,60108,(630) 980-1400,www.affiliatedclinicalpsychologistslimited.com,contact@affiliatedclinicalpsychologistslimited.com,Small Group,Medium,1457547457
"ACACIA COUNSELING, PLLC",Counseling Center,Current,"Counselor, Mental Health",4136 DEYO AVE,BROOKFIELD,IL,60513,(414) 839-6567,www.acaciacounseling.com,contact@acaciacounseling.com,Solo or Small,Medium,1598433716
AFFILIATED MENTAL HEALTH PROFESSIONALS,Psychiatry Practice,Current,"Psychiatry & Neurology, Psychiatry",135 N ARLINGTON HEIGHTS RD STE 105,BUFFALO GROVE,IL,60089,(847) 291-8810,www.affiliatedmentalhealthprofessionals.com,contact@affiliatedmentalhealthprofessionals.com,Unknown,Medium,1679531792
ADVANCED SLEEP INSTITUTE LLC,Psychiatry Practice,Current,"Psychiatry & Neurology, Neurology; Psychiatry & Neurology, Sleep Medicine",2731 WEST MAIN SUITE C,CARBONDALE,IL,62901,(618) 519-9999,www.advancedsleepinstitute.com,contact@advancedsleepinstitute.com,Solo or Small,High,1184969420
ALBANY CLINIC LLC,Psychiatry Practice,Current,"Psychiatry & Neurology, Psychiatry; Anesthesiology",35 ALBANY RD,CARBONDALE,IL,62903,(888) 804-4330,www.albanyclinic.com,contact@albanyclinic.com,Small Group,High,1780310391
"GATEWAY FOUNDATION, INC.",Psychiatry Practice,Current,"Psychiatric Residential Treatment Facility; Clinic/Center, Mental Health (Including Community Mental Health Center)",1080 E PARK ST,CARBONDALE,IL,62901,(877) 505-4673,www.gatewayfoundation.com,contact@gatewayfoundation.com,Solo or Small,High,1598914095
ACCENT COUNSELING LLC,Counseling Center,Current,"Counselor, Professional; Counselor, Professional",1207 S MATTIS AVE SUITE 4,CHAMPAIGN,IL,61821,(217) 398-8067,www.accentcounseling.com,contact@accentcounseling.com,Solo or Small,Medium,1679698526
CHESTER MENTAL HEALTH CENTER,Psychiatry Practice,Current,"Psychiatric Hospital; Pharmacy, Institutional Pharmacy",1315 LEHMEN DR,CHESTER,IL,62233,(618) 826-4571,www.chestermentalhealthcenter.com,contact@chestermentalhealthcenter.com,Small Group,High,1043364870
IL DEPT. OF HUMAN SERVICES,Psychiatry Practice,Current,Psychiatric Unit,1315 LEHMEN DR,CHESTER,IL,62233,(618) 826-4571,www.ildeptofhumanservices.com,contact@ildeptofhumanservices.com,Unknown,Medium,1376678318
IL DEPT. OF HUMAN SERVICES,Psychiatry Practice,Current,Psychiatric Unit,1315 LEHMEN DR,CHESTER,IL,62233,(618) 826-4571,www.ildeptofhumanservices.com,contact@ildeptofhumanservices.com,Unknown,Medium,1376678201
IL DEPT. OF HUMAN SERVICES,Psychiatry Practice,Current,Psychiatric Unit,1315 LEHMEN DR,CHESTER,IL,62233,(618) 826-4571,www.ildeptofhumanservices.com,contact@ildeptofhumanservices.com,Unknown,Medium,1184759185
IL DEPT. OF HUMAN SERVICES,Psychiatry Practice,Current,Psychiatric Unit,1315 LEHMEN DR,CHESTER,IL,62233,(618) 826-4571,www.ildeptofhumanservices.com,contact@ildeptofhumanservices.com,Unknown,Medium,1104951201
IL DEPT. OF HUMAN SERVICES,Psychiatry Practice,Current,Psychiatric Unit,1315 LEHMEN DR,CHESTER,IL,62233,(618) 826-4571,www.ildeptofhumanservices.com,contact@ildeptofhumanservices.com,Unknown,Medium,1215062112
IL DEPT. OF HUMAN SERVICES,Psychiatry Practice,Current,Psychiatric Unit,1315 LEHMEN DR,CHESTER,IL,62233,(618) 826-4571,www.ildeptofhumanservices.com,contact@ildeptofhumanservices.com,Unknown,Medium,1013042852
1 CARE INC.,Psychiatry Practice,Current,"Counselor, Mental Health; Psychologist",4800 S CHICAGO BEACH DR SUITE 901N,CHICAGO,IL,60615,(773) 251-4625,www.1care.com,contact@1care.com,Solo or Small,High,1942649421
"24 HOURS TELEHEALTH, PLLC",Psychiatry Practice,Current,"Psychiatry & Neurology, Psychiatry",4822 S KING DR UNIT 1N,CHICAGO,IL,60615,(901) 292-1241,www.24hourstelehealth.com,contact@24hourstelehealth.com,Solo or Small,High,1548015647
360 TALK THERAPY INC,Psychiatry Practice,Current,"Registered Nurse, Psych/Mental Health, Adult; Counselor, Mental Health",400 W 76TH ST STE 303,CHICAGO,IL,60620,(888) 338-6232,www.360talktherapy.com,contact@360talktherapy.com,Solo or Small,High,1942916572
394567 D NORTH,Psychiatry Practice,Current,Psychiatric Unit,4200 NORTH OAK PARK AVE,CHICAGO,IL,60634,(773) 794-3733,www.394567dnorth.com,contact@394567dnorth.com,Unknown,Medium,1316115223
395061 MED EVAL,Psychiatry Practice,Current,Psychiatric Unit,4200 NORTH OAK PARK AVENUE,CHICAGO,IL,60634,(773) 794-3733,www.395061medeval.com,contact@395061medeval.com,Unknown,Medium,1508034414
4GCONCEPTS,Counseling Center,Current,"Counselor, Mental Health; Counselor, Professional",2608 W 100TH ST,CHICAGO,IL,60655,(773) 612-4784,www.4gconcepts.com,contact@4gconcepts.com,Unknown,Low,1881371979
5D PSYCHIATRY PLLC,Psychiatry Practice,Current,"Psychiatry & Neurology, Psychiatry",1505 E 53RD ST STE 2E,CHICAGO,IL,60615,(312) 529-0013,www.5dpsychiatry.com,contact@5dpsychiatry.com,Solo or Small,High,1134952930
"A BEAUTIFUL MIND, INC",Counseling Center,Current,"Counselor, Mental Health; Clinic/Center, Mental Health (Including Community Mental Health Center)",5113 S HARPER AVE STE 2C,CHICAGO,IL,60615,(312) 340-8826,www.abeautifulmind.com,contact@abeautifulmind.com,Solo or Small,Medium,1245036672
"A BEAUTIFUL MIND, INC",Counseling Center,Current,"Counselor; Counselor, Addiction (Substance Use Disorder)",5113 S HARPER AVE STE 2C,CHICAGO,IL,60615,(773) 304-3699,www.abeautifulmind.com,contact@abeautifulmind.com,Solo or Small,Medium,1841947827
"A CURIOUS HEART PSYCHOTHERAPY, PLLC",Counseling Center,Current,"Counselor, Mental Health",230 E OHIO ST STE 410-1870,CHICAGO,IL,60611,(708) 428-3800,www.acuriousheartpsychotherapy.com,contact@acuriousheartpsychotherapy.com,Solo or Small,Medium,1679355614
"A I GONZALEZ, LTD",Counseling Center,Current,"Counselor, Professional",2733 W 23RD ST,CHICAGO,IL,60608,(773) 843-9139,www.aigonzalezltd.com,contact@aigonzalezltd.com,Unknown,Low,1285875658
A LISTENING EAR THERAPEUTIC SERVICES,Counseling Center,Current,"Social Worker; Counselor, Mental Health",332 S MICHIGAN AVE STE 121,CHICAGO,IL,60604,(708) 359-5626,www.alisteningeartherapeuticservices.com,contact@alisteningeartherapeuticservices.com,Unknown,Low,1598456881
A NEW DAY MENTAL WELLNESS CENTER LLC,Counseling Center,Current,"Counselor, Mental Health",6127 S UNIVERSITY AVE,CHICAGO,IL,60637,(312) 508-3829,www.anewdaymentalwellnesscenter.com,contact@anewdaymentalwellnesscenter.com,Small Group,High,1386296168
A YANSSANEH PLLC,Psychiatry Practice,Current,"Psychiatry & Neurology, Psychiatry",1322 S PRAIRIE AVE UNIT 1208,CHICAGO,IL,60605,(210) 995-2424,www.ayanssaneh.com,contact@ayanssaneh.com,Solo or Small,High,1730051194
"A-AGELOPOULOS, LLC",Psychology Practice,Current,"Psychologist, Clinical",222 MERCHANDISE MART PLZ SUITE 4111,CHICAGO,IL,60654,(773) 992-8024,www.aagelopoulos.com,contact@aagelopoulos.com,Solo or Small,Medium,1295034841
"A. LAWRENCE THERAPY, P.C",Counseling Center,Current,"Counselor, Professional",1165 N CLARK ST SUITE 202,CHICAGO,IL,60610,(312) 919-1498,www.alawrencetherapy.com,contact@alawrencetherapy.com,Unknown,Low,1013314269
"A. RESNICK, PSY.D., P.C.",Psychology Practice,Current,"Psychologist, Clinical",4256 N RAVENSWOOD AVE SUITE 310,CHICAGO,IL,60613,(773) 599-2655,www.aresnickpsyd.com,contact@aresnickpsyd.com,Unknown,Low,1548697394
A.D.D. CENTERS OF AMERICA LLC,Psychology Practice,Current,"Psychologist, Clinical",30 N MICHIGAN AVE SUITE 814,CHICAGO,IL,60602,(312) 372-4824,www.addcentersofamerica.com,contact@addcentersofamerica.com,Small Group,High,1760690978
"A.R.WOLFE, PH.D. AND ASSOCIATES",Psychology Practice,Current,Psychologist,2518 N LINCOLN AVE #204,CHICAGO,IL,60614,(312) 593-8027,www.arwolfephdandassociates.com,contact@arwolfephdandassociates.com,Small Group,Medium,1063699155
ABA MIDWEST EDUCATION LTD,Psychology Practice,Current,"Behavior Analyst; Psychologist, Clinical",1136 S DELANO CT W B201,CHICAGO,IL,60605,(312) 375-1000,www.abamidwesteducationltd.com,contact@abamidwesteducationltd.com,Unknown,Low,1891088290
"ABBIE KELLEY, LLC",Counseling Center,Current,"Counselor, Professional",2000 N RACINE AVE STE 2170,CHICAGO,IL,60614,(773) 413-9523,www.abbiekelley.com,contact@abbiekelley.com,Solo or Small,Medium,1851973390
"ABBIE KELLEY, LLC",Counseling Center,Current,"Counselor, Mental Health",2000 N RACINE AVE SUITE 2184,CHICAGO,IL,60614,(312) 485-3669,www.abbiekelley.com,contact@abbiekelley.com,Solo or Small,Medium,1386048825
ABLE PSYCHIATRY LLC,Psychiatry Practice,Current,"Psychiatry & Neurology, Psychiatry",561 W. DIVERSEY PKWY SUITE 210,CHICAGO,IL,60614,(773) 906-4546,www.ablepsychiatry.com,contact@ablepsychiatry.com,Solo or Small,High,1588019517
ABOUT CONNECTION PLLC,Counseling Center,Current,"Counselor, Professional",3660 N LAKE SHORE DR APT 4608,CHICAGO,IL,60613,(312) 451-3232,www.aboutconnection.com,contact@aboutconnection.com,Solo or Small,Medium,1699575795
ABOVE & BEYOND FAMILY RECOVERY CENTER,Counseling Center,Current,"Counselor, Addiction (Substance Use Disorder)",2942 W LAKE ST.,CHICAGO,IL,60612,(773) 940-2960,www.abovebeyondfamilyrecoverycenter.com,contact@abovebeyondfamilyrecoverycenter.com,Small Group,Medium,1497109284
ACADEMY FOR COUNSELING,Counseling Center,Current,"Counselor, Professional",810 E 81ST STREET,CHICAGO,IL,60619,(773) 723-6402,www.academyforcounseling.com,contact@academyforcounseling.com,Unknown,Low,1366572869
ACCEPTING LLC,Counseling Center,Current,"Counselor, Addiction (Substance Use Disorder); Counselor, Mental Health",107 W VAN BUREN ST STE 205,CHICAGO,IL,60605,(312) 373-0782,www.accepting.com,contact@accepting.com,Solo or Small,Medium,1659885218
"ACCL, LLC",Counseling Center,Current,"Counselor, Mental Health",1925 N MILWAUKEE AVE,CHICAGO,IL,60647,(773) 576-7032,www.accl.com,contact@accl.com,Solo or Small,Medium,1124424064
ACORN REHAB SERVICES LTD,Psychology Practice,Current,"Psychologist, Group Psychotherapy",4639 W WASHINGTON BLVD,CHICAGO,IL,60644,(773) 287-1822,www.acornrehabservicesltd.com,contact@acornrehabservicesltd.com,Unknown,Low,1982808655
"ACTION TO HEALING, LLC",Counseling Center,Current,"Counselor, Mental Health; Social Worker",175 N HARBOR DR APT 403,CHICAGO,IL,60601,(773) 331-3519,www.actiontohealing.com,contact@actiontohealing.com,Solo or Small,Medium,1730069683
ACTION-ORIENTED THERAPY PLLC,Counseling Center,Current,"Counselor, Professional",1300 W BELMONT AVE STE 501C,CHICAGO,IL,60657,(312) 970-9843,www.actionorientedtherapy.com,contact@actionorientedtherapy.com,Solo or Small,Medium,1164221131
ACTIVE THERAPIES LLC,Counseling Center,Current,"Counselor, Mental Health",5746 N VIRGINIA AVE,CHICAGO,IL,60659,(773) 562-3558,www.activetherapies.com,contact@activetherapies.com,Solo or Small,Medium,1427703289
"ADAM HELLEBRAND, PSYD PLLC",Psychology Practice,Current,"Psychologist, Clinical",405 N WABASH AVE UNIT 3209,CHICAGO,IL,60611,(312) 467-0000,www.adamhellebrandpsyd.com,contact@adamhellebrandpsyd.com,Solo or Small,Medium,1801444898
"ADAM SHAFER, P.C.",Psychology Practice,Current,"Psychologist, Clinical",820 W JACKSON BLVD STE 515,CHICAGO,IL,60607,(708) 537-9951,www.adamshafer.com,contact@adamshafer.com,Unknown,Low,1659804003
"ADAMES PSYCHOTHERAPY, PLLC",Psychology Practice,Current,"Psychologist, Clinical",537 S DEARBORN ST APT 5D,CHICAGO,IL,60605,(312) 513-9221,www.adamespsychotherapy.com,contact@adamespsychotherapy.com,Solo or Small,Medium,1205582707
ADAPT PSYCHOLOGICAL SERVICES,Psychology Practice,Current,"Psychologist, Clinical; Clinic/Center, Mental Health (Including Community Mental Health Center)",3046 W ARMITAGE AVE,CHICAGO,IL,60647,(872) 588-6011,www.adaptpsychologicalservices.com,contact@adaptpsychologicalservices.com,Unknown,Low,1073183554
ADVANCED CARE SPECIALIST GROUP LLC,Psychiatry Practice,Current,"Psychiatry & Neurology, Neurology",5907 W 63RD ST,CHICAGO,IL,60638,(708) 843-3308,www.advancedcarespecialistgroup.com,contact@advancedcarespecialistgroup.com,Small Group,High,1861956849
"ADVANCED PSYCHIATRY CLINICS, S.C.",Psychiatry Practice,Current,"Psychiatry & Neurology, Psychiatry",5519 N CUMBERLAND AVE STE 1016,CHICAGO,IL,60656,(708) 224-8840,www.advancedpsychiatryclinicssc.com,contact@advancedpsychiatryclinicssc.com,Small Group,High,1164047833
"ADVANCED PSYCHOLOGY SERVICES, LLC",Psychology Practice,Current,Clinical Neuropsychologist; Psychologist,2835 N SHEFFIELD AVE STE 310,CHICAGO,IL,60657,(773) 234-0695,www.advancedpsychologyservices.com,contact@advancedpsychologyservices.com,Solo or Small,Medium,1578231676
ADVOCATE NORTH SIDE HEALTH NETWORK,Psychiatry Practice,Current,Psychiatric Unit,836 W WELLINGTON AVE.,CHICAGO,IL,60657,(773) 975-1600,www.advocatenorthsidehealthnetwork.com,contact@advocatenorthsidehealthnetwork.com,Unknown,Medium,1639657414
ADVOCATE NORTH SIDE HEALTH NETWORK,Psychiatry Practice,Current,Psychiatric Unit; Rehabilitation Unit,836 W WELLINGTON AVE,CHICAGO,IL,60657,(773) 975-1600,www.advocatenorthsidehealthnetwork.com,contact@advocatenorthsidehealthnetwork.com,Unknown,Medium,1912014564
AFFECTIVE PSYCHIATRY PLLC,Psychiatry Practice,Current,"Psychiatry & Neurology, Psychiatry",410 S MICHIGAN AVE STE 422,CHICAGO,IL,60605,(312) 248-0230,www.affectivepsychiatry.com,contact@affectivepsychiatry.com,Solo or Small,High,1790552859
AFFILIATED PSYCHOLOGISTS LTD,Psychology Practice,Current,"Psychologist, Clinical",4801 W PETERSON AVE STE 525,CHICAGO,IL,60646,(773) 286-3100,www.affiliatedpsychologistsltd.com,contact@affiliatedpsychologistsltd.com,Unknown,Low,1760516447
"AFFIRMING ALTERNATIVES PSYCHOLOGICAL SERVICES, PC",Psychology Practice,Current,"Psychologist, Clinical",1348 W GLENLAKE AVE,CHICAGO,IL,60660,(773) 381-1922,www.affirmingalternativespsychologicalservices.com,contact@affirmingalternativespsychologicalservices.com,Solo or Small,Medium,1467568949
AGATE PSYCHOTHERAPY,Psychology Practice,Current,"Psychologist, Clinical",2835 N SHEFFIELD AVE STE 222,CHICAGO,IL,60657,(312) 620-2414,www.agatepsychotherapy.com,contact@agatepsychotherapy.com,Unknown,Low,1710703814
AGAVE STUDIO FOR PSYCHOTHERAPY AND SPIRITUAL DIRECTION,Psychology Practice,Current,"Counselor; Counselor, Pastoral",2950 W CHICAGO AVE #302,CHICAGO,IL,60622,(773) 627-2112,www.agavestudioforpsychotherapyandspiritualdirection.com,contact@agavestudioforpsychotherapyandspiritualdirection.com,Small Group,Medium,1093079212
"AGAVE STUDIO, LLC",Psychology Practice,Current,"Psychologist, Clinical; Counselor, Professional",2950 W CHICAGO AVE SUITE 202,CHICAGO,IL,60622,(618) 444-8801,www.agavestudio.com,contact@agavestudio.com,Solo or Small,Medium,1023427861
AHEAD ILLINOIS MEDICAL SERVICE CORPORATION,Psychiatry Practice,Current,"Psychiatry & Neurology, Psychiatry",1 E ERIE ST STE 525,CHICAGO,IL,60611,(855) 306-7786,www.aheadillinoismedicalservicecorporation.com,contact@aheadillinoismedicalservicecorporation.com,Unknown,Medium,1598430886
"AHUJA, CHETHIK, & ASSOCIATES",Psychology Practice,Current,"Psychologist, Clinical",655 IRVING PARK RD. #202,CHICAGO,IL,60613,(773) 509-4911,www.ahujachethikassociates.com,contact@ahujachethikassociates.com,Small Group,Medium,1144359316
AISHAH YANSSANEH LLC,Psychiatry Practice,Current,"Psychiatry & Neurology, Psychiatry",155 N HARBOR DR APT 4004,CHICAGO,IL,60601,(210) 995-2424,www.aishahyanssaneh.com,contact@aishahyanssaneh.com,Solo or Small,High,1265150544
"ALAN H. GOLDBERG, M.D.,S.C.",Psychiatry Practice,Current,"Psychiatry & Neurology, Psychiatry",845 N MICHIGAN AVE #977W,CHICAGO,IL,60611,(312) 337-7654,www.alanhgoldbergmdsc.com,contact@alanhgoldbergmdsc.com,Unknown,Medium,1992006928
ALAN TONY AMBERG PLLC,Psychiatry Practice,Current,"Psychiatry & Neurology, Psychiatry",333 N MICHIGAN AVE STE 2017,CHICAGO,IL,60601,(312) 229-0029,www.alantonyamberg.com,contact@alantonyamberg.com,Solo or Small,High,1922767573
ALANA ATCHISON PSYD PLLC,Psychology Practice,Current,"Psychologist, Clinical",211 W. WACKER DR. SUITE 300 #2007,CHICAGO,IL,60606,(312) 213-2737,www.alanaatchisonpsyd.com,contact@alanaatchisonpsyd.com,Solo or Small,Medium,1073219069
"ALCHEMY PERFORMANCE CONSULTING, LLC",Psychology Practice,Current,"Clinic/Center, Mental Health (Including Community Mental Health Center); Psychologist, Clinical",4737 N CLARK ST,CHICAGO,IL,60640,(773) 542-3408,www.alchemyperformanceconsulting.com,contact@alchemyperformanceconsulting.com,Solo or Small,Medium,1659850436
ALDAD MEDICAL PC,Psychiatry Practice,Current,"Psychiatry & Neurology, Psychiatry",159 N SANGAMON ST STE 200&300,CHICAGO,IL,60607,(516) 505-7200,www.aldadmedical.com,contact@aldadmedical.com,Solo or Small,High,1013514447
ALEKSANDRA STOBNICKI MD VIOLETA AVRAMOV MD SC,Psychiatry Practice,Current,"Physical Therapist; Psychiatry & Neurology, Neurology",7447 W TALCOTT AVE SUITE 427,CHICAGO,IL,60631,(773) 775-2323,www.aleksandrastobnickimdvioletaavramovmdsc.com,contact@aleksandrastobnickimdvioletaavramovmdsc.com,Unknown,Medium,1780622266
ALEXANDER E OBOLSKY MD PC,Psychiatry Practice,Current,"Psychiatry & Neurology, Psychiatry",100 W MONROE ST SUITE 1107,CHICAGO,IL,60603,(312) 456-4343,www.alexandereobolskymd.com,contact@alexandereobolskymd.com,Solo or Small,High,1144369927
"ALEXIS LYBROOK TAUBERT, PH.D, LTD.",Psychology Practice,Current,"Community/Behavioral Health; Psychologist, Clinical",1305 S MICHIGAN AVE APT 1309,CHICAGO,IL,60605,(773) 227-7597,www.alexislybrooktaubertphdltd.com,contact@alexislybrooktaubertphdltd.com,Unknown,Low,1346361961
"ALISON WEISS, MD, LLC",Psychiatry Practice,Current,"Psychiatry & Neurology, Psychiatry",2500 W BRADLEY PL STE 100,CHICAGO,IL,60618,(224) 306-1879,www.alisonweissmd.com,contact@alisonweissmd.com,Solo or Small,High,1831753086
ALL MEDICAL 1 LLC,Psychiatry Practice,Current,"Psychologist, Addiction (Substance Use Disorder); Psychologist, Clinical",105 N LARAMIE AVE.,CHICAGO,IL,60644,(847) 477-7502,www.allmedical1.com,contact@allmedical1.com,Solo or Small,High,1215465893
ALLEN M SIEGEL MD PC,Psychiatry Practice,Current,"Psychologist, Psychoanalysis; Psychologist",122 SOUTH MICHIGAN AVE 1301B,CHICAGO,IL,60603,(312) 583-0905,www.allenmsiegelmd.com,contact@allenmsiegelmd.com,Solo or Small,High,1407973530
"ALLIANCE COGNITIVE BEHAVIORAL THERAPIES, PLLC",Psychology Practice,Current,"Psychologist, Clinical",25 E WASHINGTON ST STE 1312,CHICAGO,IL,60602,(312) 725-8412,www.alliancecognitivebehavioraltherapies.com,contact@alliancecognitivebehavioraltherapies.com,Solo or Small,Medium,1720419740
"ALLIANCE COUNSELING & PSYCHOTHERAPY, LLC",Psychology Practice,Current,"Psychologist, Clinical; Social Worker, Clinical",30 N MICHIGAN AVE STE 1212,CHICAGO,IL,60602,(773) 412-0872,www.alliancecounselingpsychotherapy.com,contact@alliancecounselingpsychotherapy.com,Small Group,High,1912285834
ALLIANCE HEALTH CARE MANAGENENT,Psychology Practice,Current,Psychologist,1304 W 77TH ST,CHICAGO,IL,60620,(773) 994-9631,www.alliancehealthcaremanagenent.com,contact@alliancehealthcaremanagenent.com,Unknown,Low,1437396082
ALLOW WELLNESS,Psychology Practice,Current,"Psychologist, Clinical",233 E. WACKER DRIVE #3901,CHICAGO,IL,60601,(847) 903-1354,www.allowwellness.com,contact@allowwellness.com,Unknown,Low,1619365947
ALLOW WELLNESS LLC,Psychology Practice,Current,Psychologist,233 E WACKER DR APT 3901,CHICAGO,IL,60601,(847) 903-1354,www.allowwellness.com,contact@allowwellness.com,Solo or Small,Medium,1518500099
ALTER PSYCHOLOGY PLLC,Psychology Practice,Current,"Psychologist, Clinical",1500 N HALSTED ST STE 200,CHICAGO,IL,60642,(773) 217-0340,www.alterpsychology.com,contact@alterpsychology.com,Solo or Small,Medium,1023707452
ALTERNATIVE HEALTH GROUP LLC,Psychology Practice,Current,"Psychologist, Group Psychotherapy; Physical Therapist",2209 W NORTH AVE,CHICAGO,IL,60647,(773) 227-9150,www.alternativehealthgroup.com,contact@alternativehealthgroup.com,Small Group,High,1598825556
"ALTERNATIVES, INC.",Psychiatry Practice,Current,"Counselor, Addiction (Substance Use Disorder); Counselor, School",5700 S PRAIRIE AVE,CHICAGO,IL,60637,(773) 506-7474,www.alternatives.com,contact@alternatives.com,Solo or Small,High,1265104269
ALYSON HENRY PHD P.C.,Psychology Practice,Current,"Psychologist, Clinical",111 N. WABASH AVE SUITE 1021,CHICAGO,IL,60602,(773) 507-6868,www.alysonhenryphd.com,contact@alysonhenryphd.com,Unknown,Low,1770758567
AMANI TRINITY UNITED COMMUNITY HEALTH CORPORATION,Psychology Practice,Current,"Counselor, Professional; Psychologist",532 W 95TH ST,CHICAGO,IL,60628,(773) 994-9937,www.amanitrinityunitedcommunityhealthcorporation.com,contact@amanitrinityunitedcommunityhealthcorporation.com,Unknown,Low,1760691620
AMBER J BARGER PSYD PLLC,Psychology Practice,Current,Psychologist,2650 W MONTROSE AVE STE 307,CHICAGO,IL,60618,(312) 463-9439,www.amberjbargerpsyd.com,contact@amberjbargerpsyd.com,Solo or Small,Medium,1417500976
BHC STREAMWOOD MANAGEMENT SERVICES LLC,Psychiatry Practice,Current,Psychiatric Unit,2233 W DIVISION 15TH FLOOR,CHICAGO,IL,60622,(312) 773-3300,www.bhcstreamwoodmanagementservices.com,contact@bhcstreamwoodmanagementservices.com,Solo or Small,High,1538114392
CARITAS,Psychiatry Practice,Current,"Psychiatric Residential Treatment Facility; Clinic/Center, Mental Health (Including Community Mental Health Center)",140 N ASHLAND AVE,CHICAGO,IL,60607,(312) 850-0050,www.caritas.com,contact@caritas.com,Unknown,Medium,1104059864
"DISCOVERY PRACTICE MANAGEMENT, INC.",Psychiatry Practice,Current,"Psychiatric Residential Treatment Facility; Community Based Residential Treatment Facility, Mental Illness",7450 N SHERIDAN RD,CHICAGO,IL,60626,(714) 828-1800,www.discoverypracticemanagement.com,contact@discoverypracticemanagement.com,Solo or Small,High,1609405497
EATING RECOVERY CENTER,Psychiatry Practice,Current,Psychiatric Residential Treatment Facility,1 E ERIE ST STE 400,CHICAGO,IL,60611,(312) 540-9955,www.eatingrecoverycenter.com,contact@eatingrecoverycenter.com,Small Group,High,1437649266
EATING RECOVERY CENTER,Psychiatry Practice,Current,Psychiatric Residential Treatment Facility,333 N MICHIGAN AVE STE 1900,CHICAGO,IL,60601,(773) 321-2750,www.eatingrecoverycenter.com,contact@eatingrecoverycenter.com,Small Group,High,1205367901
ERC INSIGHT,Psychiatry Practice,Current,Psychiatric Residential Treatment Facility,200 E OHIO ST,CHICAGO,IL,60611,(773) 572-8386,www.ercinsight.com,contact@ercinsight.com,Unknown,Medium,1144763269
"GATEWAY FOUNDATION, INC",Psychiatry Practice,Current,"Substance Abuse Rehabilitation Facility, Substance Abuse Treatment, Children; Clinic/Center, Rehabilitation, Substance Use Disorder",55 E JACKSON BLVD SUITE 1500,CHICAGO,IL,60604,(312) 663-1130,www.gatewayfoundation.com,contact@gatewayfoundation.com,Solo or Small,High,1386779445
GULIN GUNERI LTD,Psychiatry Practice,Current,Psychiatric Unit,3523 N LINCOLN AVE,CHICAGO,IL,60657,(773) 426-1616,www.gulinguneriltd.com,contact@gulinguneriltd.com,Unknown,Medium,1205156312
HUMBOLDT PARK HEALTH,Psychiatry Practice,Current,Psychiatric Unit; General Acute Care Hospital,1044 NORTH FRANCISCO,CHICAGO,IL,60622,(773) 292-8200,www.humboldtparkhealth.com,contact@humboldtparkhealth.com,Unknown,Medium,1972594877
HUMBOLDT PARK HEALTH,Psychiatry Practice,Current,Psychiatric Unit,1044 N FRANCISCO AVE,CHICAGO,IL,60622,(773) 292-8200,www.humboldtparkhealth.com,contact@humboldtparkhealth.com,Unknown,Medium,1013944479
IDHS CHICAGO READ MHC,Psychiatry Practice,Current,Psychiatric Unit,4200 N OAK PARK AVE,CHICAGO,IL,60634,(773) 794-3733,www.idhschicagoreadmhc.com,contact@idhschicagoreadmhc.com,Unknown,Medium,1922141084
IDHS CHICAGO READ MHC,Psychiatry Practice,Current,Psychiatric Unit,4200 N OAK PARK AVE,CHICAGO,IL,60634,(773) 794-3733,www.idhschicagoreadmhc.com,contact@idhschicagoreadmhc.com,Unknown,Medium,1780727842
IDHS CHICAGO READ MHC,Psychiatry Practice,Current,Psychiatric Unit,4200 N OAK PARK AVE,CHICAGO,IL,60634,(773) 794-3733,www.idhschicagoreadmhc.com,contact@idhschicagoreadmhc.com,Unknown,Medium,1760525836
IDHS CHICAGO READ MHC,Psychiatry Practice,Current,Psychiatric Unit,4200 N OAK PARK AVE,CHICAGO,IL,60634,(773) 794-3733,www.idhschicagoreadmhc.com,contact@idhschicagoreadmhc.com,Unknown,Medium,1013050178
IDHS CHICAGO READ MHC,Psychiatry Practice,Current,Psychiatric Unit,4200 N OAK PARK AVE,CHICAGO,IL,60634,(773) 794-3733,www.idhschicagoreadmhc.com,contact@idhschicagoreadmhc.com,Unknown,Medium,1093858151
IDHS-CHICAGO READ MHC,Psychiatry Practice,Current,Psychiatric Unit,4200 N OAK PARK AVE,CHICAGO,IL,60634,(773) 794-3733,www.idhschicagoreadmhc.com,contact@idhschicagoreadmhc.com,Unknown,Medium,1285777342
INSIGHT BEHAVIORAL HEALTH CENTERS,Psychiatry Practice,Current,Psychiatric Residential Treatment Facility,200 E OHIO ST B,CHICAGO,IL,60611,(708) 288-6327,www.insightbehavioralhealthcenters.com,contact@insightbehavioralhealthcenters.com,Small Group,High,1992110217
INSIGHT BEHAVIORAL HEALTH CENTERS,Psychiatry Practice,Current,Psychiatric Residential Treatment Facility,333 N MICHIGAN AVE 1900,CHICAGO,IL,60601,(773) 321-2726,www.insightbehavioralhealthcenters.com,contact@insightbehavioralhealthcenters.com,Small Group,High,1982098398
INSIGHT BEHAVIORAL HEALTH CENTERS,Psychiatry Practice,Current,Psychiatric Residential Treatment Facility,333 N MICHIGAN AVE SUITE 1900,CHICAGO,IL,60601,(312) 540-9955,www.insightbehavioralhealthcenters.com,contact@insightbehavioralhealthcenters.com,Small Group,High,1326409087
INSIGHT BEHAVIORAL HEALTH CENTERS,Psychiatry Practice,Current,Psychiatric Residential Treatment Facility,200 E OHIO ST 4TH FLOOR,CHICAGO,IL,60611,(312) 540-9955,www.insightbehavioralhealthcenters.com,contact@insightbehavioralhealthcenters.com,Small Group,High,1225490568
INSIGHT BEHAVIORAL HEALTH CENTERS,Psychiatry Practice,Current,Psychiatric Residential Treatment Facility,150 E HURON ST SUITE 1200,CHICAGO,IL,60611,(312) 540-9955,www.insightbehavioralhealthcenters.com,contact@insightbehavioralhealthcenters.com,Small Group,High,1184070492
"INSIGHT CHICAGO, INC.",Psychiatry Practice,Current,Psychiatric Unit,2525 S MICHIGAN AVE,CHICAGO,IL,60616,(312) 567-2000,www.insightchicago.com,contact@insightchicago.com,Solo or Small,High,1043297401
"INSIGHT:EATING DISORDERS, WEIGHT MANAGEMENT & PSYCHOLOGICAL CENTERS",Psychiatry Practice,Current,Psychiatric Hospital; Psychiatric Residential Treatment Facility,1 E. ERIE STREET 4TH FLOOR,CHICAGO,IL,60611,(877) 825-8584,www.insighteatingdisordersweightmanagementpsychologicalcenters.com,contact@insighteatingdisordersweightmanagementpsychologicalcenters.com,Small Group,High,1194359489
ISAAC RAY CENTER AT CERMAK,Psychiatry Practice,Current,Psychiatric Unit,3159 N SEMINARY #301,CHICAGO,IL,60657,(248) 765-7127,www.isaacraycenteratcermak.com,contact@isaacraycenteratcermak.com,Small Group,High,1669704326
"KINDRED CHICAGO NORTHLAKE, LLC",Psychiatry Practice,Current,Psychiatric Unit; Long Term Care Hospital,2544 W MONTROSE AVE,CHICAGO,IL,60618,(773) 267-2622,www.kindredchicagonorthlake.com,contact@kindredchicagonorthlake.com,Solo or Small,High,1821604125
"KINDRED THC CHICAGO, LLC",Psychiatry Practice,Current,Psychiatric Unit; Long Term Care Hospital,2544 W MONTROSE AVE,CHICAGO,IL,60618,(773) 267-2622,www.kindredthcchicago.com,contact@kindredthcchicago.com,Solo or Small,High,1871678334
LARRYMURAIN INTERNATIONAL INC,Psychiatry Practice,Current,"Registered Nurse, Psych/Mental Health; Case Management",1137 E 82ND ST APT 202,CHICAGO,IL,60619,(312) 572-9074,www.larrymuraininternational.com,contact@larrymuraininternational.com,Solo or Small,High,1871322073
MADO HEALTHCARE,Psychiatry Practice,Current,Nursing Facility/Intermediate Care Facility; Skilled Nursing Facility,1541 NORTH WELLS,CHICAGO,IL,60610,(312) 787-9400,www.madohealthcare.com,contact@madohealthcare.com,Unknown,Medium,1437410891
ADVANCED COUNSELING AND ASSESSMENT SERVICES INC,Psychology Practice,Current,"Psychologist, Clinical",2208 WEBER RD SUITE B,CREST HILL,IL,60403,(815) 630-3159,www.advancedcounselingandassessmentservices.com,contact@advancedcounselingandassessmentservices.com,Small Group,High,1306985296
AMERICAN WARRIORS INC,Psychology Practice,Current,Community/Behavioral Health; Counselor,2518 E CREEKWOOD CT,CRETE,IL,60417,(773) 858-7412,www.americanwarriors.com,contact@americanwarriors.com,Solo or Small,Medium,1922487891
"ADVOCACY COUNSELING CENTER, LTD",Psychology Practice,Current,"Psychologist, Clinical",44 N VIRGINIA ST SUITE 2B,CRYSTAL LAKE,IL,60014,(815) 243-6789,www.advocacycounselingcenterltd.com,contact@advocacycounselingcenterltd.com,Small Group,Medium,1508235540
A & E BEHAVIORAL HEALTH CARE ASSOCIATES PC,Psychiatry Practice,Current,Counselor; Psychologist,2570 FEDERAL DRIVE,DECATUR,IL,62526,(217) 872-1003,www.aebehavioralhealthcareassociates.com,contact@aebehavioralhealthcareassociates.com,Small Group,High,1023171006
ABC COUNSELING & FAMILY SERVICES,Counseling Center,Current,"Counselor, Professional; Social Worker, Clinical",1110 ARBOR DR STE A,DECATUR,IL,62526,(309) 877-9217,www.abccounselingfamilyservices.com,contact@abccounselingfamilyservices.com,Small Group,Medium,1639418676
ALEKSANDR DEKHTYAR MD SC,Psychiatry Practice,Current,"Psychiatry & Neurology, Psychiatry",614 MARTIN LN,DEERFIELD,IL,60015,(224) 805-6085,www.aleksandrdekhtyarmdsc.com,contact@aleksandrdekhtyarmdsc.com,Unknown,Medium,1801091582
KISHWAUKEE COMMUNITY HEALTH SERVICES CENTER,Psychiatry Practice,Current,Psychiatric Unit,ONE KISH HOSPITAL DR,DEKALB,IL,60115,(815) 756-1521,www.kishwaukeecommunityhealthservicescenter.com,contact@kishwaukeecommunityhealthservicescenter.com,Small Group,High,1902079973
"2014 HEALTH, LLC",Psychiatry Practice,Current,Psychiatric Hospital,555 WILSON LN,DES PLAINES,IL,60016,(847) 768-5430,www.2014health.com,contact@2014health.com,Solo or Small,High,1083021877
"DISCOVERY PRACTICE MANAGEMENT, INC.",Psychiatry Practice,Current,Psychiatric Residential Treatment Facility,1400 E TOUHY AVE STE 300B,DES PLAINES,IL,60018,(714) 828-1800,www.discoverypracticemanagement.com,contact@discoverypracticemanagement.com,Solo or Small,High,1831759653
"DISCOVERY PRACTICE MANAGEMENT, INC.",Psychiatry Practice,Current,Psychiatric Residential Treatment Facility,1400 E TOUHY AVE STE 300A,DES PLAINES,IL,60018,(714) 828-1800,www.discoverypracticemanagement.com,contact@discoverypracticemanagement.com,Solo or Small,High,1841850476
MARYVILLE ACADEMY,Psychiatry Practice,Current,Psychiatric Hospital,555 WILSON LN,DES PLAINES,IL,60016,(847) 768-5461,www.maryvilleacademy.com,contact@maryvilleacademy.com,Unknown,Medium,1518905173
MARYVILLE ACADEMY,Psychiatry Practice,Current,Psychiatric Residential Treatment Facility,555 WILSON LANE MARYVILLE SCOTT NOLAN CENTER,DES PLAINES,IL,60016,(847) 768-5461,www.maryvilleacademy.com,contact@maryvilleacademy.com,Unknown,Medium,1306873419
MARYVILLE ACADEMY,Psychiatry Practice,Current,Psychiatric Residential Treatment Facility,555 WILSON LN,DES PLAINES,IL,60016,(847) 768-5461,www.maryvilleacademy.com,contact@maryvilleacademy.com,Unknown,Medium,1558391656
"MARY-GRACE, INC.",Psychiatry Practice,Current,"Day Training, Developmentally Disabled Services; Home Health",14446 UNIVERSITY AVE,DOLTON,IL,60419,(708) 841-3171,www.marygrace.com,contact@marygrace.com,Solo or Small,High,1801100268
ACCENDO WELLNESS INC.,Counseling Center,Current,"Counselor, Mental Health",3915 SARATOGA AVE APT 208,DOWNERS GROVE,IL,60515,(630) 341-0365,www.accendowellness.com,contact@accendowellness.com,Solo or Small,Medium,1265145379
"ACHE AND AWE THERAPY, PLLC",Counseling Center,Current,"Counselor, Professional",2231 MIDHURST RD,DOWNERS GROVE,IL,60516,(515) 554-8131,www.acheandawetherapy.com,contact@acheandawetherapy.com,Small Group,High,1790651081
ALAIRE PSYCHIATRY,Psychiatry Practice,Current,"Psychiatry & Neurology, Psychiatry",3825 HIGHLAND AVE STE 3K,DOWNERS GROVE,IL,60515,(630) 614-1227,www.alairepsychiatry.com,contact@alairepsychiatry.com,Unknown,Medium,1346060191
"ALLISON NIEBES-DAVIS, PHD., LTD.",Psychology Practice,Current,Psychologist,1327 BUTTERFIELD RD STE 604,DOWNERS GROVE,IL,60515,(630) 441-4415,www.allisonniebesdavisphdltd.com,contact@allisonniebesdavisphdltd.com,Unknown,Low,1467917419
ALPHA OMEGA CHRISTIAN COUNSELING P C,Psychology Practice,Current,"Psychologist, Clinical; Psychologist, Clinical",1914 ESIC DR,EDWARDSVILLE,IL,62025,(618) 698-6299,www.alphaomegachristiancounselingpc.com,contact@alphaomegachristiancounselingpc.com,Unknown,Low,1972774677
ACCESS NEUROCARE PC,Psychiatry Practice,Current,"Psychiatry & Neurology, Neurology; Psychiatry & Neurology, Neurology",750 FLETCHER DRIVE SUITE 204,ELGIN,IL,60123,(847) 931-4626,www.accessneurocare.com,contact@accessneurocare.com,Solo or Small,High,1306948534
"ADLERIAN WELLNESS CENTER, LTD",Psychology Practice,Current,Psychologist,1595 WELD RD STE 5,ELGIN,IL,60123,(224) 605-5670,www.adlerianwellnesscenterltd.com,contact@adlerianwellnesscenterltd.com,Small Group,Medium,1639743362
ADVANCED NEUROLOGY & SLEEP CLINIC LLC,Psychiatry Practice,Current,"Psychiatry & Neurology, Neurology",40 N AIRLITE ST STE 4,ELGIN,IL,60123,(847) 628-9977,www.advancedneurologysleepclinic.com,contact@advancedneurologysleepclinic.com,Small Group,High,1407196256
AKUOU HEALTHCARE SERVICES LLC,Psychiatry Practice,Current,"Psychiatry & Neurology, Psychiatry",2250 POINT BLVD STE 335,ELGIN,IL,60123,(224) 629-8975,www.akuouhealthcareservices.com,contact@akuouhealthcareservices.com,Solo or Small,High,1699637652
"ALIGNED MIND, PC",Psychology Practice,Current,"Psychologist, Clinical",3586 WETLANDS CT,ELGIN,IL,60124,(630) 217-7602,www.alignedmind.com,contact@alignedmind.com,Solo or Small,Medium,1801299656
ALPHA OMEGA AMERICA INC.,Psychology Practice,Current,"Registered Nurse, Psych/Mental Health; Community/Behavioral Health",75 MARKET ST STE. 14,ELGIN,IL,60123,(847) 931-9455,www.alphaomegaamerica.com,contact@alphaomegaamerica.com,Solo or Small,Medium,1922339183
AMAOLI LLC,Psychology Practice,Current,Psychologist,164 DIVISION ST STE 617,ELGIN,IL,60120,(331) 442-6551,www.amaoli.com,contact@amaoli.com,Solo or Small,Medium,1295348506
ELGIN MENTAL HEALTH CENTER BRUNK 4495,Psychiatry Practice,Current,Psychiatric Unit,750 S STATE ST,ELGIN,IL,60123,(847) 742-1040,www.elginmentalhealthcenterbrunk4495.com,contact@elginmentalhealthcenterbrunk4495.com,Small Group,High,1366566887
ELGIN MENTAL HEALTH CENTER FTP F&G 4561,Psychiatry Practice,Current,Psychiatric Unit,750 S STATE ST,ELGIN,IL,60123,(847) 742-1040,www.elginmentalhealthcenterftpfg4561.com,contact@elginmentalhealthcenterftpfg4561.com,Small Group,High,1659495414
ELGIN MENTAL HEALTH CENTER FTP H&I 4562,Psychiatry Practice,Current,Psychiatric Unit,750 S STATE ST,ELGIN,IL,60123,(847) 742-1040,www.elginmentalhealthcenterftphi4562.com,contact@elginmentalhealthcenterftphi4562.com,Small Group,High,1477677235
ELGIN MENTAL HEALTH CENTER FTP K&L 4563,Psychiatry Practice,Current,Psychiatric Unit,750 S STATE ST,ELGIN,IL,60123,(847) 742-1040,www.elginmentalhealthcenterftpkl4563.com,contact@elginmentalhealthcenterftpkl4563.com,Small Group,High,1891819322
ELGIN MENTAL HEALTH CENTER FTP M&N 4581,Psychiatry Practice,Current,Psychiatric Unit,750 S. STATE ST.,ELGIN,IL,60123,(847) 742-1040,www.elginmentalhealthcenterftpmn4581.com,contact@elginmentalhealthcenterftpmn4581.com,Small Group,High,1073637872
ELGIN MENTAL HEALTH CENTER HARTMAN 4564,Psychiatry Practice,Current,Psychiatric Unit,750 S STATE ST,ELGIN,IL,60123,(847) 742-1040,www.elginmentalhealthcenterhartman4564.com,contact@elginmentalhealthcenterhartman4564.com,Small Group,High,1316061187
ELGIN MENTAL HEALTH CENTER HINTON 4485,Psychiatry Practice,Current,Psychiatric Unit,750 S STATE ST,ELGIN,IL,60123,(847) 742-1040,www.elginmentalhealthcenterhinton4485.com,contact@elginmentalhealthcenterhinton4485.com,Small Group,High,1174647929
ELGIN MENTAL HEALTH CENTER PINEL 4565,Psychiatry Practice,Current,Psychiatric Unit,750 S STATE ST,ELGIN,IL,60123,(847) 742-1040,www.elginmentalhealthcenterpinel4565.com,contact@elginmentalhealthcenterpinel4565.com,Small Group,High,1578687000
ELGIN MENTAL HEALTH CENTER WILLIAM WHITE 4585,Psychiatry Practice,Current,Psychiatric Unit,750 S. STATE ST.,ELGIN,IL,60123,(847) 742-1040,www.elginmentalhealthcenterwilliamwhite4585.com,contact@elginmentalhealthcenterwilliamwhite4585.com,Small Group,High,1952425076
"ALAN M. ROBERTSON M.D., S.C.",Psychiatry Practice,Current,"Psychiatry & Neurology, Psychiatry",220 S LINDEN AVE,ELMHURST,IL,60126,(630) 359-5290,www.alanmrobertsonmdsc.com,contact@alanmrobertsonmdsc.com,Unknown,Medium,1609994797
ELMHURST MEMORIAL GUIDANCE SERVICES,Psychiatry Practice,Current,Psychiatric Hospital,183 NORTH YORK ROAD,ELMHURST,IL,60126,(630) 941-4577,www.elmhurstmemorialguidanceservices.com,contact@elmhurstmemorialguidanceservices.com,Unknown,Medium,1417070137
"ADAM & ASSOCIATES PSYCHOTHERAPY SERVICES, INC.",Psychiatry Practice,Current,Psychiatric Unit,2550 CRAWFORD AVE SUITE 12,EVANSTON,IL,60201,(847) 729-5906,www.adamassociatespsychotherapyservices.com,contact@adamassociatespsychotherapyservices.com,Small Group,High,1417187717
ADVANCED PSYCHOLOGY LLC,Psychology Practice,Current,"Psychologist, Clinical",2530 CRAWFORD AVE SUITE 118,EVANSTON,IL,60201,(847) 404-1384,www.advancedpsychology.com,contact@advancedpsychology.com,Solo or Small,Medium,1295024412
"ALIGNED PSYCHOLOGICAL SERVICES, PLLC",Psychology Practice,Current,"Psychologist, Clinical",922 DAVIS ST.,EVANSTON,IL,60201,(312) 834-4785,www.alignedpsychologicalservices.com,contact@alignedpsychologicalservices.com,Solo or Small,Medium,1568277846
"ALISSA LEVY CHUNG, PH.D., INC.",Psychology Practice,Current,"Psychologist, Clinical",704 SOUTH BLVD,EVANSTON,IL,60202,(773) 852-6910,www.alissalevychungphd.com,contact@alissalevychungphd.com,Solo or Small,Medium,1639535396
CHILDREN'S HOME & AID SOCIETY OF AMERICA,Psychiatry Practice,Current,Psychiatric Residential Treatment Facility,1101 WASHINGTON ST,EVANSTON,IL,60202,(847) 424-5170,www.childrenshomeaidsocietyofamerica.com,contact@childrenshomeaidsocietyofamerica.com,Small Group,High,1972559383
ENDEAVOR HEALTH CLINICAL OPERATIONS,Psychiatry Practice,Current,Psychiatric Unit,2650 RIDGE AVE,EVANSTON,IL,60201,(847) 570-2000,www.endeavorhealthclinicaloperations.com,contact@endeavorhealthclinicaloperations.com,Small Group,High,1093755340
A TOTALITY OF CARE INC.,Counseling Center,Current,Counselor; In Home Supportive Care,3235 VOLLMER RD STE 200,FLOSSMOOR,IL,60422,(708) 740-9001,www.atotalityofcare.com,contact@atotalityofcare.com,Solo or Small,Medium,1619528700
ADVANCED PSYCHIATRIC SERVICES SC,Psychiatry Practice,Current,"Psychiatry & Neurology, Psychiatry",8311 ROOSEVELT RD,FOREST PARK,IL,60130,(708) 771-7000,www.advancedpsychiatricservicessc.com,contact@advancedpsychiatricservicessc.com,Unknown,Medium,1215982509
A - WARD COUNSELING,Counseling Center,Current,"Counselor, Professional",56 DEER PATH CT,GENESEO,IL,61254,(563) 529-4515,www.awardcounseling.com,contact@awardcounseling.com,Unknown,Low,1073924718
"HEARTLAND BANYAN, LLC",Psychiatry Practice,Current,Psychiatric Hospital; Substance Abuse Rehabilitation Facility,1237 E 1600 NORTH RD,GILMAN,IL,60938,(815) 707-2136,www.heartlandbanyan.com,contact@heartlandbanyan.com,Solo or Small,High,1215404819
"ALLY MENTAL HEALTH, PLLC",Psychology Practice,Current,"Psychologist, Clinical","800 ROOSEVELT ROAD BUILDING B, SUITE 419A",GLEN ELLYN,IL,60137,(630) 908-0098,www.allymentalhealth.com,contact@allymentalhealth.com,Solo or Small,Medium,1407617889
"LIFE CARE WELLNESS, INC.",Psychiatry Practice,Current,Marriage & Family Therapist; Counselor,800 ROOSEVELT RD STE C206,GLEN ELLYN,IL,60137,(630) 423-5935,www.lifecarewellness.com,contact@lifecarewellness.com,Solo or Small,High,1952767733
JUBILEE HEALTH INC,Psychiatry Practice,Current,Psychiatric Residential Treatment Facility,1016 VICTORIA LN,GLENDALE HEIGHTS,IL,60139,(630) 379-8183,www.jubileehealth.com,contact@jubileehealth.com,Solo or Small,High,1932330446
ADVANCED PRACTICE MEDICAL GROUP LLC,Psychiatry Practice,Current,"Preventive Medicine, Addiction Medicine; Nurse Practitioner",1500 WAUKEGAN RD STE 213,GLENVIEW,IL,60025,(630) 656-4307,www.advancedpracticemedicalgroup.com,contact@advancedpracticemedicalgroup.com,Small Group,High,1386220184
"DISCOVERY PRACTICE MANAGEMENT, INC",Psychiatry Practice,Current,Psychiatric Residential Treatment Facility,3737 LAWSON RD,GLENVIEW,IL,60026,(714) 828-1800,www.discoverypracticemanagement.com,contact@discoverypracticemanagement.com,Solo or Small,High,1235510603
AMERICAN HEALTHCARE SYSTEMS ILLINOIS LLC,Psychiatry Practice,Current,Clinic/Center; Psychiatric Unit,2100 MADISON AVE,GRANITE CITY,IL,62040,(818) 666-0602,www.americanhealthcaresystemsillinois.com,contact@americanhealthcaresystemsillinois.com,Solo or Small,High,1326765884
AMERICAN HEALTHCARE SYSTEMS ILLINOIS LLC,Psychiatry Practice,Current,Psychiatric Unit,2100 MADISON AVE,GRANITE CITY,IL,62040,(618) 798-3000,www.americanhealthcaresystemsillinois.com,contact@americanhealthcaresystemsillinois.com,Solo or Small,High,1043918576
AIC ASSOCIATES INC,Psychology Practice,Current,"Psychologist, Clinical",100 S ATKINSON RD SUITE 203,GRAYSLAKE,IL,60030,(847) 543-8378,www.aicassociates.com,contact@aicassociates.com,Small Group,High,1952451577
"ALEX MIRMAN, MD, PLLC",Psychiatry Practice,Current,"Psychiatry & Neurology, Psychiatry",2206 KIPLING LN,HIGHLAND PARK,IL,60035,(847) 209-7444,www.alexmirmanmd.com,contact@alexmirmanmd.com,Solo or Small,High,1033005020
"ALISON W BRETT, PHD, P.C,",Psychology Practice,Current,"Clinical Neuropsychologist; Psychologist, Clinical",461 BURTON AVE,HIGHLAND PARK,IL,60035,(847) 476-6050,www.alisonwbrettphd.com,contact@alisonwbrettphd.com,Unknown,Low,1265688576
ENDEAVOR HEALTH CLINICAL OPERATIONS,Psychiatry Practice,Current,Psychiatric Unit,718 GLENVIEW AVE,HIGHLAND PARK,IL,60035,(847) 432-8000,www.endeavorhealthclinicaloperations.com,contact@endeavorhealthclinicaloperations.com,Small Group,High,1770527236
"JOHN J. MADDEN MHC PAV 7, UNIT 4390",Psychiatry Practice,Current,Psychiatric Unit,1200 SOUTH FIRST AVE,HINES,IL,60141,(708) 338-7048,www.johnjmaddenmhcpav7unit4390.com,contact@johnjmaddenmhcpav7unit4390.com,Unknown,Medium,1801930805
"JOHN J. MADDEN MHC PAV-1, UNIT 4461",Psychiatry Practice,Current,Psychiatric Unit,1200 SOUTH FIRST AVE,HINES,IL,60141,(708) 338-7048,www.johnjmaddenmhcpav1unit4461.com,contact@johnjmaddenmhcpav1unit4461.com,Unknown,Medium,1922142942
"JOHN J. MADDEN MHC PAV-2, UNIT 4470",Psychiatry Practice,Current,Psychiatric Unit,1200 SOUTH FIRST AVE,HINES,IL,60141,(708) 338-7048,www.johnjmaddenmhcpav2unit4470.com,contact@johnjmaddenmhcpav2unit4470.com,Unknown,Medium,1790829612
"JOHN J. MADDEN MHC PAV-4, UNIT 4490",Psychiatry Practice,Current,Psychiatric Unit,1200 SOUTH FIRST AVE,HINES,IL,60141,(708) 338-7048,www.johnjmaddenmhcpav4unit4490.com,contact@johnjmaddenmhcpav4unit4490.com,Unknown,Medium,1144364050
"JOHN J. MADDEN MHC PAV-5, UNIT 4370",Psychiatry Practice,Current,Psychiatric Unit,1200 SOUTH FIRST AVE,HINES,IL,60141,(708) 338-7048,www.johnjmaddenmhcpav5unit4370.com,contact@johnjmaddenmhcpav5unit4370.com,Unknown,Medium,1679617682
"JOHN J. MADDEN MHC PAV-6, UNIT 4380",Psychiatry Practice,Current,Psychiatric Unit,1200 SOUTH FIRST AVE,HINES,IL,60141,(708) 338-7048,www.johnjmaddenmhcpav6unit4380.com,contact@johnjmaddenmhcpav6unit4380.com,Unknown,Medium,1669516670
"JOHN J. MADDEN MHC PAV-8, UNIT 4361",Psychiatry Practice,Current,Psychiatric Unit,1200 SOUTH FIRST AVE,HINES,IL,60141,(708) 338-7048,www.johnjmaddenmhcpav8unit4361.com,contact@johnjmaddenmhcpav8unit4361.com,Unknown,Medium,1265576235
"JOHN J. MADDEN MHC PAV3, UNIT 4480",Psychiatry Practice,Current,Psychiatric Unit,1200 SOUTH FIRST AVE,HINES,IL,60141,(708) 338-7048,www.johnjmaddenmhcpav3unit4480.com,contact@johnjmaddenmhcpav3unit4480.com,Unknown,Medium,1154465128
MENTAL HEALTH SERVICE LINE,Psychiatry Practice,Current,Psychiatric Unit,5TH AVE AND ROOSEVELT ROAD,HINES,IL,60141,(708) 202-8387,www.mentalhealthserviceline.com,contact@mentalhealthserviceline.com,Unknown,Medium,1508965724
"ADVANCED BEHAVIORAL CENTERS OF DUPAGE, LLC",Psychiatry Practice,Current,"Counselor, Professional; Psychologist",501 W. OGDEN AVENUE SUITE 1,HINSDALE,IL,60521,(773) 906-4546,www.advancedbehavioralcentersofdupage.com,contact@advancedbehavioralcentersofdupage.com,Small Group,High,1477618668
"ADVENTIST HEALTH PARTNERS, INC",Psychiatry Practice,Current,"Psychiatry & Neurology, Neurology",908 N ELM ST 202,HINSDALE,IL,60521,(630) 856-8640,www.adventisthealthpartners.com,contact@adventisthealthpartners.com,Small Group,High,1033490651
"ADVENTIST HEALTH PARTNERS, INC",Psychiatry Practice,Current,"Psychiatry & Neurology, Psychiatry",908 N ELM ST STE 208,HINSDALE,IL,60521,(224) 273-5870,www.adventisthealthpartners.com,contact@adventisthealthpartners.com,Small Group,High,1194149104
ADVENTIST MIDWEST HEALTH,Psychiatry Practice,Current,"Social Worker, Clinical; Dermatology",135 N OAK ST,HINSDALE,IL,60521,(630) 856-8900,www.adventistmidwesthealth.com,contact@adventistmidwesthealth.com,Unknown,Medium,1366579443
ADVENTIST MIDWEST HEALTH,Psychiatry Practice,Current,Psychiatric Unit,120 N OAK STREET,HINSDALE,IL,60521,(630) 856-9000,www.adventistmidwesthealth.com,contact@adventistmidwesthealth.com,Unknown,Medium,1447270780
"A BETTER YOU COUNSELING, PLLC",Counseling Center,Current,"Counselor, Mental Health; Social Worker, Clinical",3150 W HIGGINS RD STE 160,HOFFMAN ESTATES,IL,60169,(773) 945-6819,www.abetteryoucounseling.com,contact@abetteryoucounseling.com,Solo or Small,Medium,1861012775
"A HEALING SOUL, LTD.",Counseling Center,Current,"Counselor, Professional",555 W CENTRAL RD,HOFFMAN ESTATES,IL,60192,(847) 370-5181,www.ahealingsoulltd.com,contact@ahealingsoulltd.com,Unknown,Low,1760618144
ACE COUNSELING GROUP LLC,Counseling Center,Current,"Counselor, Mental Health",14007 S BELL RD STE 183,HOMER GLEN,IL,60491,(708) 553-0602,www.acecounselinggroup.com,contact@acecounselinggroup.com,Small Group,High,1194341586
A BRIDGE 2 HEALING THERAPEUTIC SERVICES,Counseling Center,Current,"Clinic/Center, Mental Health (Including Community Mental Health Center); Counselor, Addiction (Substance Use Disorder)",930 175TH ST,HOMEWOOD,IL,60430,(708) 831-3943,www.abridge2healingtherapeuticservices.com,contact@abridge2healingtherapeuticservices.com,Unknown,Low,1801508528
ALEXANDER CONSULTING LLC,Psychology Practice,Current,"Psychologist, Clinical",19114 JONATHAN LN,HOMEWOOD,IL,60430,(773) 457-3303,www.alexanderconsulting.com,contact@alexanderconsulting.com,Solo or Small,Medium,1154562726
"167 COUNSELING SERVICES, PLLC",Counseling Center,Current,"Counselor, Mental Health",910 PASTURE ROSE ST,JOLIET,IL,60431,(505) 510-2211,www.167counselingservices.com,contact@167counselingservices.com,Solo or Small,Medium,1124745450
"ACTUALIZING YOUR BEST SELF, PLLC",Counseling Center,Current,"Counselor, Professional",2531 DIVISION ST STE 103,JOLIET,IL,60435,(815) 200-9322,www.actualizingyourbestself.com,contact@actualizingyourbestself.com,Solo or Small,Medium,1114723335
AIM PSYCHOLOGICAL SERVICES CORP,Psychology Practice,Current,"Psychologist, Clinical",13 FAIRLANE DR,JOLIET,IL,60435,(312) 802-1956,www.aimpsychologicalservicescorp.com,contact@aimpsychologicalservicescorp.com,Unknown,Low,1457658700
ALLIED COUNSELING SERVICES PC,Psychology Practice,Current,Psychologist,49 SHERWOOD TERRACE STE T,LAKE BLUFF,IL,60044,(847) 615-1425,www.alliedcounselingservices.com,contact@alliedcounselingservices.com,Solo or Small,Medium,1184847279
ACTUALLY ME THERAPY AND CONSULTATION PLLC,Counseling Center,Current,"Counselor, Mental Health; Clinic/Center, Mental Health (Including Community Mental Health Center)",17941 WENTWORTH AVE OFC 1,LANSING,IL,60438,(708) 501-7442,www.actuallymetherapyandconsultation.com,contact@actuallymetherapyandconsultation.com,Small Group,High,1063132108
ALLIED PSYCHOLOGICAL SERVICES LTD,Psychology Practice,Current,"Counselor, Addiction (Substance Use Disorder); Counselor, Addiction (Substance Use Disorder)",501 PETERSON RD STE 101,LIBERTYVILLE,IL,60048,(847) 680-3828,www.alliedpsychologicalservicesltd.com,contact@alliedpsychologicalservicesltd.com,Unknown,Low,1982876116
"ACCESS COUNSELING SERVICES, INC",Counseling Center,Current,"Counselor, Professional",175 OLDE HALF DAY RD STE 103,LINCOLNSHIRE,IL,60069,(224) 225-9650,www.accesscounselingservices.com,contact@accesscounselingservices.com,Solo or Small,Medium,1043901556
ADVANCED PSYCHOTHERAPY SOLUTIONS LLC,Psychology Practice,Current,"Psychologist, Group Psychotherapy",7360 N LINCOLN AVE STE 110,LINCOLNWOOD,IL,60712,(847) 972-1824,www.advancedpsychotherapysolutions.com,contact@advancedpsychotherapysolutions.com,Solo or Small,Medium,1447789516
ACHOR CENTER PLLC,Counseling Center,Current,"Counselor, Professional",3030 WARRENVILLE RD STE 450-12,LISLE,IL,60532,(773) 844-2298,www.achorcenter.com,contact@achorcenter.com,Small Group,High,1659060754
"ADULT MENTAL HEALTH SERVICES, INC",Psychiatry Practice,Current,"Psychiatry & Neurology, Psychiatry",3333 WARRENVILLE RD SUITE 200,LISLE,IL,60532,(630) 962-4457,www.adultmentalhealthservices.com,contact@adultmentalhealthservices.com,Solo or Small,High,1952572026
A NEW DAY COUNSELING CENTER LTD,Counseling Center,Current,"Counselor, Mental Health",2 E 22ND ST STE 302,LOMBARD,IL,60148,(630) 853-0766,www.anewdaycounselingcenterltd.com,contact@anewdaycounselingcenterltd.com,Small Group,Medium,1518382977
A PLUS EXTENDED THERAPY INC,Psychiatry Practice,Current,"Psychologist, Clinical; Psychiatry & Neurology, Psychiatry",1920 S HIGHLAND AVE STE 314,LOMBARD,IL,60148,(708) 704-0000,www.aplusextendedtherapy.com,contact@aplusextendedtherapy.com,Solo or Small,High,1386951812
"ADVANCED GROWTH, INC",Psychiatry Practice,Current,Substance Abuse Rehabilitation Facility; Psychiatric Residential Treatment Facility,19W706 13TH PL,LOMBARD,IL,60148,(888) 948-9998,www.advancedgrowth.com,contact@advancedgrowth.com,Solo or Small,High,1295107753
13-LUNAS LLC,Counseling Center,Current,"Counselor, Professional",1418 N 19TH AVE,MELROSE PARK,IL,60160,(708) 996-7745,www.13lunas.com,contact@13lunas.com,Solo or Small,Medium,1821833245
"AGAPE COUNSELING, LTD",Psychology Practice,Current,"Counselor; Counselor, Addiction (Substance Use Disorder)",75 E QUEENWOOD RD,MORTON,IL,61550,(309) 263-5565,www.agapecounselingltd.com,contact@agapecounselingltd.com,Unknown,Low,1821070434
GOOD SAMARITAN REGIONAL HEALTH CENTER,Psychiatry Practice,Current,Psychiatric Unit; General Acute Care Hospital,1 GOOD SAMARITAN WAY,MOUNT VERNON,IL,62864,(618) 899-4600,www.goodsamaritanregionalhealthcenter.com,contact@goodsamaritanregionalhealthcenter.com,Small Group,High,1609897339
21 REFLECTIONS PROF. CORP,Counseling Center,Current,"Counselor, Professional",2244 95TH ST STE 219,NAPERVILLE,IL,60564,(708) 404-9337,www.21reflectionsprofcorp.com,contact@21reflectionsprofcorp.com,Unknown,Low,1831771682
360 YOUTH SERVICES,Counseling Center,Current,"Counselor, Professional",1935 BROOKDALE RD STE 119,NAPERVILLE,IL,60563,(630) 717-9408,www.360youthservices.com,contact@360youthservices.com,Unknown,Low,1518336908
360 YOUTH SERVICES,Counseling Center,Current,"Counselor, Professional",1548 BOND ST STE 114,NAPERVILLE,IL,60563,(630) 717-9408,www.360youthservices.com,contact@360youthservices.com,Unknown,Low,1336690239
AANYA HEALTH SERVICES PLLC,Psychology Practice,Current,"Counselor, Mental Health; Clinical Neuropsychologist",1552 S ROUTE 59 SUITE # 1283,NAPERVILLE,IL,60564,(630) 296-5251,www.aanyahealthservices.com,contact@aanyahealthservices.com,Solo or Small,Medium,1679394852
ABUNDANCE THERAPY LLC,Psychology Practice,Current,"Psychologist; Clinic/Center, Mental Health (Including Community Mental Health Center)",1555 NAPERVILLE WHEATON RD STE 209F,NAPERVILLE,IL,60563,(630) 283-8111,www.abundancetherapy.com,contact@abundancetherapy.com,Solo or Small,Medium,1770253205
"ACHIEVING SOLUTIONS COUNSELING, INC.",Counseling Center,Current,Counselor,600 S WASHINGTON ST SUITE 302,NAPERVILLE,IL,60540,(630) 632-4060,www.achievingsolutionscounseling.com,contact@achievingsolutionscounseling.com,Solo or Small,Medium,1356772412
ADVANCED BEHAVIORAL HEALTH SERVICES LLC,Psychiatry Practice,Current,"Psychiatry & Neurology, Neurology",1952 MC DOWELL RD STE 305,NAPERVILLE,IL,60563,(630) 689-1022,www.advancedbehavioralhealthservices.com,contact@advancedbehavioralhealthservices.com,Solo or Small,High,1447545579
GPR SOLUTIONS SC,Psychiatry Practice,Current,Psychiatric Residential Treatment Facility,554 BOVIDAE CIR,NAPERVILLE,IL,60565,(630) 995-9142,www.gprsolutionssc.com,contact@gprsolutionssc.com,Unknown,Medium,1164751913
CHICAGO MEDICAL SCHOOL,Psychiatry Practice,Current,Psychiatric Unit,3333 GREEN BAY RD,NORTH CHICAGO,IL,60064,(734) 286-4594,www.chicagomedicalschool.com,contact@chicagomedicalschool.com,Unknown,Medium,1316329162
A BETTER YOU THERAPY PC,Psychology Practice,Current,Psychologist,1433 CHURCH ST,NORTHBROOK,IL,60062,(847) 903-9611,www.abetteryoutherapy.com,contact@abetteryoutherapy.com,Solo or Small,Medium,1538918263
"ADVANCE NEURO PSYCHOLOGY AND ASSESSMENT, INC",Psychology Practice,Current,Psychologist,3100 DUNDEE RD STE 403,NORTHBROOK,IL,60062,(847) 907-5010,www.advanceneuropsychologyandassessment.com,contact@advanceneuropsychologyandassessment.com,Small Group,High,1063017366
AFFILIATES IN COUNSELING LLC,Psychology Practice,Current,"Social Worker, Clinical; Marriage & Family Therapist",633 SKOKIE BLVD 260,NORTHBROOK,IL,60062,(847) 480-0300,www.affiliatesincounseling.com,contact@affiliatesincounseling.com,Solo or Small,Medium,1003868472
ALEXANDER TIMCHAK MD LLC,Psychiatry Practice,Current,"Psychiatry & Neurology, Child & Adolescent Psychiatry; Psychiatry & Neurology, Psychiatry",60 REVERE DR STE 100,NORTHBROOK,IL,60062,(708) 207-4580,www.alexandertimchakmd.com,contact@alexandertimchakmd.com,Solo or Small,High,1891113734
"MENTAL HEALTH AND DEAFNESS RESOURCES, INC.",Psychiatry Practice,Current,"Psychiatric Unit; Community Based Residential Treatment Facility, Mental Illness",614 ANTHONY TRL,NORTHBROOK,IL,60062,(847) 509-8260,www.mentalhealthanddeafnessresources.com,contact@mentalhealthanddeafnessresources.com,Small Group,High,1891887030
AFG DIAGNOSTICS LTD,Psychology Practice,Current,Psychologist,1622 WILLOW RD STE 200,NORTHFIELD,IL,60093,(847) 853-0234,www.afgdiagnosticsltd.com,contact@afgdiagnosticsltd.com,Unknown,Low,1699538322
"A BETTER TOMORROW: BEHAVIORAL HEALTH CARE CENTER, INC.",Psychology Practice,Current,"Psychologist, Health; Social Worker, Clinical",2021 MIDWEST RD STE 300,OAK BROOK,IL,60523,(630) 317-7775,www.abettertomorrowbehavioralhealthcarecenter.com,contact@abettertomorrowbehavioralhealthcarecenter.com,Small Group,High,1699061713
A PLUS PSYCHOLOGICAL SERVICES AND TESTING,Psychology Practice,Current,"Psychologist, Clinical",3 OAK BROOK CLUB DR E 302,OAK BROOK,IL,60523,(630) 833-8987,www.apluspsychologicalservicesandtesting.com,contact@apluspsychologicalservicesandtesting.com,Small Group,Medium,1679795629
ADVANCED PSYCHIATRIC SOLUTIONS INC.,Psychiatry Practice,Current,"Clinic/Center, Adult Mental Health; Psychiatry & Neurology, Psychiatry",1200 HARGER RD STE 200,OAK BROOK,IL,60523,(630) 607-0387,www.advancedpsychiatricsolutions.com,contact@advancedpsychiatricsolutions.com,Solo or Small,High,1548791452
ADVANCED THERAPEUTIC SOLUTIONS,Psychology Practice,Current,"Counselor, Mental Health; Counselor, Professional",600 W 22ND STREET SUITE 250,OAK BROOK,IL,60523,(630) 230-6505,www.advancedtherapeuticsolutions.com,contact@advancedtherapeuticsolutions.com,Unknown,Low,1215223318
AHMED HUSSAIN LTD,Psychiatry Practice,Current,"Psychiatry & Neurology, Psychiatry",2 BAYBROOK LN,OAK BROOK,IL,60523,(773) 370-8177,www.ahmedhussainltd.com,contact@ahmedhussainltd.com,Unknown,Medium,1225160567
"180 WHOLE HEALTH, LLC",Counseling Center,Current,"Counselor, Mental Health",837 N LOMBARD AVE,OAK PARK,IL,60302,(773) 800-6714,www.180wholehealth.com,contact@180wholehealth.com,Solo or Small,Medium,1720897333
AFRICAN AMERICAN CHRISTIAN FOUNDATION,Psychiatry Practice,Current,Case Management; Nursing Care,6707 NORTH AVE,OAK PARK,IL,60302,(708) 848-1700,www.africanamericanchristianfoundation.com,contact@africanamericanchristianfoundation.com,Unknown,Medium,1801556964
ALERT COUNSELING & THERAPY PLLC,Psychology Practice,Current,"Psychologist, Clinical",1010 LAKE ST STE 200,OAK PARK,IL,60301,(708) 665-4951,www.alertcounselingtherapy.com,contact@alertcounselingtherapy.com,Small Group,High,1538814595
AIDA MIHAJLOVIC MD INC,Psychiatry Practice,Current,"Psychiatry & Neurology, Psychiatry",3700 W 203RD ST SUITE 308,OLYMPIA FIELDS,IL,60461,(708) 481-8290,www.aidamihajlovicmd.com,contact@aidamihajlovicmd.com,Solo or Small,High,1891710026
"A CONSCIOUS MIND THERACOACHING, PLLC",Counseling Center,Current,"Counselor, Mental Health",16950 89TH AVE,ORLAND HILLS,IL,60487,(708) 261-5728,www.aconsciousmindtheracoaching.com,contact@aconsciousmindtheracoaching.com,Solo or Small,Medium,1407545429
"ADVANCED CARE SOLUTIONS, INC.",Psychology Practice,Current,"Psychologist, Clinical",11235 DISTINCTIVE DR,ORLAND PARK,IL,60467,(708) 479-5555,www.advancedcaresolutions.com,contact@advancedcaresolutions.com,Solo or Small,Medium,1891957684
"ADVANCED PSYCHOLOGICAL ALTERNATIVES, INC",Psychology Practice,Current,"Psychologist, Cognitive & Behavioral; Psychologist, Health",15010 S RAVINIA AVE #314,ORLAND PARK,IL,60462,(708) 212-3335,www.advancedpsychologicalalternatives.com,contact@advancedpsychologicalalternatives.com,Solo or Small,Medium,1609051093
ADVANCED TREATMENT CENTER INC,Psychiatry Practice,Current,"Psychiatry & Neurology, Psychiatry",7818 BRAELOCH CT,ORLAND PARK,IL,60462,(708) 444-1123,www.advancedtreatmentcenter.com,contact@advancedtreatmentcenter.com,Small Group,High,1346550662
BREATHE,Psychiatry Practice,Current,"Counselor; Counselor, Addiction (Substance Use Disorder)",15255 S 94TH AVE,ORLAND PARK,IL,60462,(847) 461-8718,www.breathe.com,contact@breathe.com,Unknown,Medium,1285036491
"A REJUVENATED MIND BEHAVIORAL HEALTH, LLC",Counseling Center,Current,"Counselor, Mental Health",50 N BROCKWAY ST STE 3-1,PALATINE,IL,60067,(224) 877-1730,www.arejuvenatedmindbehavioralhealth.com,contact@arejuvenatedmindbehavioralhealth.com,Solo or Small,Medium,1730607730
AMANGO AUTISM CORRELATION FUNCTIONAL BEHAVIOR INTERVENTION INC,Psychology Practice,Current,"Counselor, Mental Health; Clinical Neuropsychologist",2291 N ENLUND DR UNIT 8,PALATINE,IL,60074,(630) 670-7473,www.amangoautismcorrelationfunctionalbehaviorintervention.com,contact@amangoautismcorrelationfunctionalbehaviorintervention.com,Solo or Small,Medium,1437817657
"A.S.S.I.S.T. OF PALOS HEIGHTS, INC.",Counseling Center,Current,"Counselor, Professional",7808 W COLLEGE DR LOWER LEVEL STE 3,PALOS HEIGHTS,IL,60463,(708) 261-3544,www.assistofpalosheights.com,contact@assistofpalosheights.com,Solo or Small,Medium,1861427387
4S WELLNESS SERVICES,Psychology Practice,Current,"Psychologist, Group Psychotherapy",305 WAYNE ST,PARK FOREST,IL,60466,(708) 466-8853,www.4swellnessservices.com,contact@4swellnessservices.com,Unknown,Low,1487324083
ABBY BOTTORFF COUNSELING,Counseling Center,Current,Counselor,123 INDIANWOOD BLVD UNIT 791,PARK FOREST,IL,60466,(563) 293-1402,www.abbybottorffcounseling.com,contact@abbybottorffcounseling.com,Unknown,Low,1124820469
"A BETTER DAY, LLP",Counseling Center,Current,"Counselor; Social Worker, Clinical",1580 N NORTHWEST HWY STE 111D,PARK RIDGE,IL,60068,(773) 818-8598,www.abetterdayllp.com,contact@abetterdayllp.com,Unknown,Low,1588011027
6 2 COUNSELING,Counseling Center,Current,"Counselor, Mental Health",3106 N SHERWOOD AVE,PEORIA,IL,61604,(309) 306-2524,www.62counseling.com,contact@62counseling.com,Unknown,Low,1306616602
6 2 COUNSELING LLC,Counseling Center,Current,"Counselor, Mental Health",3106 N SHERWOOD AVE,PEORIA,IL,61604,(309) 306-2524,www.62counseling.com,contact@62counseling.com,Solo or Small,Medium,1386415461
ADVANCED BEHAVIORAL HEALTH P C,Psychology Practice,Current,"Psychologist, Clinical","8600 ROUTE 91, NORTH SUITE 240",PEORIA,IL,61615,(309) 683-5094,www.advancedbehavioralhealthpc.com,contact@advancedbehavioralhealthpc.com,Unknown,Low,1346462850
I2 HEALTH OPCO LLC,Psychiatry Practice,Current,Psychiatric Hospital,9014 N WOOD SAGE ROAD,PEORIA,IL,61615,(844) 360-8600,www.i2healthopco.com,contact@i2healthopco.com,Solo or Small,High,1407719131
"A NEW DAY COUNSELING & FAMILY WELLNESS, INC. NFP",Psychology Practice,Current,"Counselor, Professional; Psychologist, Clinical",23908 W MAIN ST,PLAINFIELD,IL,60544,(815) 683-8700,www.anewdaycounselingfamilywellnessnfp.com,contact@anewdaycounselingfamilywellnessnfp.com,Small Group,High,1275296899
A NEW DAY FAMILY COUNSELING,Counseling Center,Current,"Counselor, Professional; Social Worker",23819 W MILL ST,PLAINFIELD,IL,60544,(815) 313-4161,www.anewdayfamilycounseling.com,contact@anewdayfamilycounseling.com,Unknown,Low,1013538131
A RAY OF HOPE MENTAL HEALTH SERVICES,Counseling Center,Current,"Counselor, Mental Health",15003 ILLINOIS ROUTE 59,PLAINFIELD,IL,60544,(779) 803-4015,www.arayofhopementalhealthservices.com,contact@arayofhopementalhealthservices.com,Unknown,Low,1811747538
BLESSINGCARE CORPORATION,Psychiatry Practice,Current,Psychiatric Unit,1005 BROADWAY ST,QUINCY,IL,62301,(217) 223-8400,www.blessingcarecorporation.com,contact@blessingcarecorporation.com,Unknown,Medium,1881080596
A.M. ART THERAPY CO,Counseling Center,Current,Counselor,6975 REDANSA DR,ROCKFORD,IL,61108,(815) 398-7000,www.amarttherapyco.com,contact@amarttherapyco.com,Unknown,Low,1265156590
A NEW DAY DAWNING INTEGRATIVE PSYCHOLOGY ASSOCIATES PLLC,Psychology Practice,Current,Psychologist,3601 ALGONQUIN RD STE 450,ROLLING MEADOWS,IL,60008,(224) 286-4229,www.anewdaydawningintegrativepsychologyassociates.com,contact@anewdaydawningintegrativepsychologyassociates.com,Small Group,High,1760342489
ACHIEVE THERAPY PLLC,Counseling Center,Current,"Counselor, Mental Health; Social Worker, Clinical",1393 SANDWICH DR,SANDWICH,IL,60548,(630) 551-5062,www.achievetherapy.com,contact@achievetherapy.com,Solo or Small,Medium,1891505061
A ACCEPTANCE CENTER CORP.,Counseling Center,Current,"Counselor, Mental Health",200 W HIGGINS RD STE 316,SCHAUMBURG,IL,60195,(847) 541-2233,www.aacceptancecentercorp.com,contact@aacceptancecentercorp.com,Small Group,Medium,1447908561
ADVANCED BEHAVIORAL SOLUTIONS,Psychology Practice,Current,Psychologist,2060 EAST ALGONQUIN ROAD SUITE 720,SCHAUMBURG,IL,60173,(847) 496-4693,www.advancedbehavioralsolutions.com,contact@advancedbehavioralsolutions.com,Unknown,Low,1215194923
ALEXIAN BROTHERS BEHAVIORAL HEALTH PARISH SERVICES,Psychiatry Practice,Current,Psychiatric Hospital,25 E SCHAUMBURG RD SUITE 106,SCHAUMBURG,IL,60194,(847) 230-3762,www.alexianbrothersbehavioralhealthparishservices.com,contact@alexianbrothersbehavioralhealthparishservices.com,Unknown,Medium,1194128900
"FAMILIES AND ADOLESCENTS IN RECOVERY, PC  DBA F.A.I.R COUNSELING",Psychiatry Practice,Current,"Psychiatric Unit; Social Worker, Clinical",1834 WALDEN OFFICE SQ STE 450,SCHAUMBURG,IL,60173,(847) 359-5192,www.familiesandadolescentsinrecoverydbafaircounseling.com,contact@familiesandadolescentsinrecoverydbafaircounseling.com,Small Group,High,1932251766
360 WELLNESS,Counseling Center,Current,"Counselor, Professional",700 W JEFFERSON ST STE 2,SHOREWOOD,IL,60404,(815) 530-4397,www.360wellness.com,contact@360wellness.com,Unknown,Low,1629604277
AASHA MENTAL HEALTH LLC,Psychology Practice,Current,"Clinic/Center, Adult Mental Health; Clinic/Center, Adolescent and Children Mental Health",4905 OLD ORCHARD CTR STE 521,SKOKIE,IL,60077,(312) 545-6435,www.aashamentalhealth.com,contact@aashamentalhealth.com,Solo or Small,Medium,1114630464
ADRIENNE M BALSAM MD SC,Psychiatry Practice,Current,"Psychiatry & Neurology, Psychiatry",9669 KENTON AVE SUITE 209,SKOKIE,IL,60076,(847) 933-0455,www.adriennembalsammdsc.com,contact@adriennembalsammdsc.com,Unknown,Medium,1578516035
ADULT AND PEDIATRIC NEUROLOGY,Psychiatry Practice,Current,"Psychiatry & Neurology, Neurology with Special Qualifications in Child Neurology",9933 LAWLER AVE STE 313,SKOKIE,IL,60077,(847) 450-7737,www.adultandpediatricneurology.com,contact@adultandpediatricneurology.com,Small Group,High,1720532773
A MCFARLAND MENTAL HEALTH CENTER - LINCOLN NORTH,Psychiatry Practice,Current,Psychiatric Unit,901 E SOUTHWIND RD,SPRINGFIELD,IL,62703,(217) 786-6994,www.amcfarlandmentalhealthcenterlincolnnorth.com,contact@amcfarlandmentalhealthcenterlincolnnorth.com,Small Group,High,1083110407
DHS CENTRAL PHARMACY,Psychiatry Practice,Current,Psychiatric Hospital,901 SOUTHWIND DR,SPRINGFIELD,IL,62703,(217) 558-0965,www.dhscentralpharmacy.com,contact@dhscentralpharmacy.com,Unknown,Medium,1386798627
DHS-A. MCFARLAND MHC-STEVENSON HALL,Psychiatry Practice,Current,Psychiatric Unit,901 SOUTHWIND DR,SPRINGFIELD,IL,62703,(217) 786-6994,www.dhsamcfarlandmhcstevensonhall.com,contact@dhsamcfarlandmhcstevensonhall.com,Unknown,Medium,1841417318
DHS-MCFARLAND MHC-KENNEDY HALL,Psychiatry Practice,Current,Psychiatric Unit,901 SOUTHWIND DR,SPRINGFIELD,IL,62703,(217) 786-6994,www.dhsmcfarlandmhckennedyhall.com,contact@dhsmcfarlandmhckennedyhall.com,Unknown,Medium,1861613630
IDHS-MCFARLAND MHC- STEVENSON HALL,Psychiatry Practice,Current,Psychiatric Unit,901 SOUTHWIND DR,SPRINGFIELD,IL,62703,(217) 786-6994,www.idhsmcfarlandmhcstevensonhall.com,contact@idhsmcfarlandmhcstevensonhall.com,Unknown,Medium,1982730255
IDHS-MCFARLAND MHC-DOUGLAS HALL,Psychiatry Practice,Current,Psychiatric Unit,901 SOUTHWIND DR,SPRINGFIELD,IL,62703,(217) 786-6994,www.idhsmcfarlandmhcdouglashall.com,contact@idhsmcfarlandmhcdouglashall.com,Unknown,Medium,1033249982
IDHS-MCFARLAND MHC-JEFFERSON HALL,Psychiatry Practice,Current,Psychiatric Unit,901 SOUTHWIND DR,SPRINGFIELD,IL,62703,(217) 786-6994,www.idhsmcfarlandmhcjeffersonhall.com,contact@idhsmcfarlandmhcjeffersonhall.com,Unknown,Medium,1144350802
IDHS-MCFARLAND MHC-LINCOLN HALL,Psychiatry Practice,Current,Psychiatric Unit,901 SOUTHWIND DR,SPRINGFIELD,IL,62703,(217) 786-6994,www.idhsmcfarlandmhclincolnhall.com,contact@idhsmcfarlandmhclincolnhall.com,Unknown,Medium,1528198280
IDHS-MCFARLAND MHC-MONROE HALL,Psychiatry Practice,Current,Psychiatric Unit,901 SOUTHWIND DR,SPRINGFIELD,IL,62703,(217) 786-6994,www.idhsmcfarlandmhcmonroehall.com,contact@idhsmcfarlandmhcmonroehall.com,Unknown,Medium,1508996257
IDHS-MCFARLAND-KENNEDY HALL,Psychiatry Practice,Current,Psychiatric Unit,901 SOUTHWIND DR,SPRINGFIELD,IL,62703,(217) 786-6994,www.idhsmcfarlandkennedyhall.com,contact@idhsmcfarlandkennedyhall.com,Unknown,Medium,1962537308
A NEW LIGHT COUNSELING SERVICE,Counseling Center,Current,"Counselor, Professional",412 S 2ND ST,ST CHARLES,IL,60174,(630) 885-2705,www.anewlightcounselingservice.com,contact@anewlightcounselingservice.com,Unknown,Low,1518674373
ALTER CLINICAL SERVICES LLC,Psychology Practice,Current,"Psychologist, Clinical",100 ILLINOIS ST STE 200,ST CHARLES,IL,60174,(847) 971-6941,www.alterclinicalservices.com,contact@alterclinicalservices.com,Small Group,High,1033732003
"ALEKSANDAR KONDIC, INC",Psychiatry Practice,Current,"Psychiatry & Neurology, Psychiatry",309 N OLTENDORF RD,STREAMWOOD,IL,60107,(630) 855-5155,www.aleksandarkondic.com,contact@aleksandarkondic.com,Solo or Small,High,1235381906
"ILLINOIS RECOVERY CENTER, LLC",Psychiatry Practice,Current,Psychiatric Residential Treatment Facility; Substance Abuse Rehabilitation Facility,1450 CASEYVILLE AVE,SWANSEA,IL,62226,(888) 510-3133,www.illinoisrecoverycenter.com,contact@illinoisrecoverycenter.com,Small Group,High,1770219453
A BRIDGE TO HEALING PC,Counseling Center,Current,Counselor,1625 BETHANY RD,SYCAMORE,IL,60178,(779) 777-7335,www.abridgetohealing.com,contact@abridgetohealing.com,Solo or Small,Medium,1629950159
"A & A CLINICAL COUNSELING SOLUTIONS, INC.",Psychology Practice,Current,"Psychologist, Clinical",4580 WEAVER PARKWAY SUITE 204,WARRENVILLE,IL,60555,(630) 473-3970,www.aaclinicalcounselingsolutions.com,contact@aaclinicalcounselingsolutions.com,Small Group,High,1306248505
"AG PSYCHOLOGY ASSOCIATES, PC",Psychology Practice,Current,"Psychologist, Clinical",4365 LAWN AVE SUITE 8,WESTERN SPRINGS,IL,60558,(773) 888-2602,www.agpsychologyassociates.com,contact@agpsychologyassociates.com,Small Group,Medium,1497149322
ACORN THERAPY AND WELLNESS PLLC,Counseling Center,Current,"Counselor, Professional",825 N CASS AVE,WESTMONT,IL,60559,(708) 612-0536,www.acorntherapyandwellness.com,contact@acorntherapyandwellness.com,Small Group,High,1346820222
515 FITNESS INC.,Counseling Center,Current,"Counselor, Professional",713 WARRENVILLE RD,WHEATON,IL,60189,(708) 232-0258,www.515fitness.com,contact@515fitness.com,Solo or Small,Medium,1134508310
A PEACEFUL MIND,Counseling Center,Current,"Counselor, Professional",2098 TIMBER LN,WHEATON,IL,60189,(630) 251-5644,www.apeacefulmind.com,contact@apeacefulmind.com,Unknown,Low,1396636809
ALLIANCE CLINICAL ASSOCIATES SC,Psychiatry Practice,Current,"Counselor, Professional; Psychologist, Clinical",7 BLANCHARD CIR SUITE 201,WHEATON,IL,60189,(630) 653-2300,www.allianceclinicalassociatessc.com,contact@allianceclinicalassociatessc.com,Small Group,High,1144299769
ADVANCED NEURO DIAGNOSTICS LTD,Psychiatry Practice,Current,"Psychiatry & Neurology, Neurology",350 E DUNDEE RD SUITE 315,WHEELING,IL,60090,(224) 676-0547,www.advancedneurodiagnosticsltd.com,contact@advancedneurodiagnosticsltd.com,Unknown,Medium,1740209972
83RD PROFESSIONAL GROUP LLC,Psychiatry Practice,Current,"Social Worker, Clinical; Psychiatry & Neurology, Psychiatry",6723 KINGREY HIGHWAY,WILLOWBROOK,IL,60527,(630) 850-0600,www.83rdprofessionalgroup.com,contact@83rdprofessionalgroup.com,Small Group,High,1518346170
"ADINA KLEIMAN, PHD, LTD",Psychology Practice,Current,Psychologist,444 SKOKIE BLVD SUITE 340,WILMETTE,IL,60091,(847) 256-0055,www.adinakleimanphdltd.com,contact@adinakleimanphdltd.com,Unknown,Low,1518142488
247DCT,Psychology Practice,Current,"Psychologist; Psychologist, Addiction (Substance Use Disorder)",343 N WOOD DALE RD STE 201,WOOD DALE,IL,60191,(773) 322-9581,www.247dct.com,contact@247dct.com,Unknown,Low,1669104832
247DCT LLC,Counseling Center,Current,"Counselor; Clinic/Center, Mental Health (Including Community Mental Health Center)",343 N WOOD DALE RD # 201A,WOOD DALE,IL,60191,(773) 817-5928,www.247dct.com,contact@247dct.com,Solo or Small,Medium,1013621523
"A & M COUNSELING, PC",Counseling Center,Current,"Counselor, Mental Health",114 WHITELAW AVE,WOOD RIVER,IL,62095,(618) 251-4225,www.amcounseling.com,contact@amcounseling.com,Small Group,Medium,1154634632
"A &M COUNSELING, PC",Counseling Center,Current,"Counselor, Professional",114 WHITELAW AVE,WOOD RIVER,IL,62095,(618) 251-4225,www.amcounseling.com,contact@amcounseling.com,Solo or Small,Medium,1356402051
"A LITTLE HELP, LLC",Counseling Center,Current,"Counselor, Mental Health",11761 W 11TH ST,ZION,IL,60099,(262) 909-0356,www.alittlehelp.com,contact@alittlehelp.com,Solo or Small,Medium,1740857036
